{"type": "FeatureCollection", "features": [ {"type": "Feature", "properties": {"norad_id": 36533, "name": "COSMOS 2251 DEB", "group": "cosmos-2251-debris", "lat": 28.22324270370724, "lon": 139.81429203373924, "alt_km": 735.4784766438224, "timestamp": "2025-12-04T03:47:54.939401+00:00", "meta": {"OBJECT_NAME": "COSMOS 2251 DEB", "OBJECT_ID": "1993-036BCT", "EPOCH": "2025-12-02T10:15:35.914464", "MEAN_MOTION": 14.49752107, "ECCENTRICITY": 0.00491246, "INCLINATION": 74.0095, "RA_OF_ASC_NODE": 134.2138, "ARG_OF_PERICENTER": 285.2045, "MEAN_ANOMALY": 74.3685, "EPHEMERIS_TYPE": 0, "CLASSIFICATION_TYPE": "U", "NORAD_CAT_ID": 36533, "ELEMENT_SET_NO": 999, "REV_AT_EPOCH": 84335, "BSTAR": 0.00057659582, "MEAN_MOTION_DOT": 2.227e-05, "MEAN_MOTION_DDOT": 0}, "tle": {"line1": "1 36533U 93036BCT 25336.42749901  .00002227  00000+0  57660-3 0  9995", "line2": "2 36533  74.0095 134.2138 0049124 285.2045  74.3685 14.49752107843351"}}, "geometry": {"type": "Point", "coordinates": [139.81429203373924, 28.22324270370724]}}, {"type": "Feature", "properties": {"norad_id": 36539, "name": "COSMOS 2251 DEB", "group": "cosmos-2251-debris", "lat": -57.687479863361105, "lon": 44.61629463946952, "alt_km": 699.2894794362, "timestamp": "2025-12-04T03:47:54.939411+00:00", "meta": {"OBJECT_NAME": "COSMOS 2251 DEB", "OBJECT_ID": "1993-036BCZ", "EPOCH": "2025-12-03T08:20:08.109312", "MEAN_MOTION": 14.59188198, "ECCENTRICITY": 0.0027776, "INCLINATION": 74.0242, "RA_OF_ASC_NODE": 73.0949, "ARG_OF_PERICENTER": 219.543, "MEAN_ANOMALY": 140.3709, "EPHEMERIS_TYPE": 0, "CLASSIFICATION_TYPE": "U", "NORAD_CAT_ID": 36539, "ELEMENT_SET_NO": 999, "REV_AT_EPOCH": 83810, "BSTAR": 0.0012029, "MEAN_MOTION_DOT": 5.676e-05, "MEAN_MOTION_DDOT": 0}, "tle": {"line1": "1 36539U 93036BCZ 25337.34731608  .00005676  00000+0  12029-2 0  9998", "line2": "2 36539  74.0242  73.0949 0027776 219.5430 140.3709 14.59188198838100"}}, "geometry": {"type": "Point", "coordinates": [44.61629463946952, -57.687479863361105]}}, {"type": "Feature", "properties": {"norad_id": 36540, "name": "COSMOS 2251 DEB", "group": "cosmos-2251-debris", "lat": -67.60206178340715, "lon": 152.8397776999211, "alt_km": 695.0980321174093, "timestamp": "2025-12-04T03:47:54.939421+00:00", "meta": {"OBJECT_NAME": "COSMOS 2251 DEB", "OBJECT_ID": "1993-036BDA", "EPOCH": "2025-12-02T20:51:21.650112", "MEAN_MOTION": 14.58331663, "ECCENTRICITY": 0.00153879, "INCLINATION": 74.0294, "RA_OF_ASC_NODE": 199.3109, "ARG_OF_PERICENTER": 270.0205, "MEAN_ANOMALY": 89.9197, "EPHEMERIS_TYPE": 0, "CLASSIFICATION_TYPE": "U", "NORAD_CAT_ID": 36540, "ELEMENT_SET_NO": 999, "REV_AT_EPOCH": 85866, "BSTAR": 0.0013440093, "MEAN_MOTION_DOT": 6.206e-05, "MEAN_MOTION_DDOT": 0}, "tle": {"line1": "1 36540U 93036BDA 25336.86900058  .00006206  00000+0  13440-2 0  9991", "line2": "2 36540  74.0294 199.3109 0015387 270.0205  89.9197 14.58331663858664"}}, "geometry": {"type": "Point", "coordinates": [152.8397776999211, -67.60206178340715]}}, {"type": "Feature", "properties": {"norad_id": 36550, "name": "COSMOS 2251 DEB", "group": "cosmos-2251-debris", "lat": 10.404630217225527, "lon": -148.7242191639116, "alt_km": 821.5228611852817, "timestamp": "2025-12-04T03:47:54.939431+00:00", "meta": {"OBJECT_NAME": "COSMOS 2251 DEB", "OBJECT_ID": "1993-036BDL", "EPOCH": "2025-12-02T08:00:24.910560", "MEAN_MOTION": 14.27149643, "ECCENTRICITY": 0.00787603, "INCLINATION": 74.0451, "RA_OF_ASC_NODE": 211.5637, "ARG_OF_PERICENTER": 264.4889, "MEAN_ANOMALY": 94.7272, "EPHEMERIS_TYPE": 0, "CLASSIFICATION_TYPE": "U", "NORAD_CAT_ID": 36550, "ELEMENT_SET_NO": 999, "REV_AT_EPOCH": 84447, "BSTAR": 0.00078484278, "MEAN_MOTION_DOT": 1.953e-05, "MEAN_MOTION_DDOT": 0}, "tle": {"line1": "1 36550U 93036BDL 25336.33362165  .00001953  00000+0  78484-3 0  9999", "line2": "2 36550  74.0451 211.5637 0078760 264.4889  94.7272 14.27149643844475"}}, "geometry": {"type": "Point", "coordinates": [-148.7242191639116, 10.404630217225527]}}, {"type": "Feature", "properties": {"norad_id": 36551, "name": "COSMOS 2251 DEB", "group": "cosmos-2251-debris", "lat": -73.26071208594894, "lon": -73.66010229631549, "alt_km": 559.550130445472, "timestamp": "2025-12-04T03:47:54.939441+00:00", "meta": {"OBJECT_NAME": "COSMOS 2251 DEB", "OBJECT_ID": "1993-036BDM", "EPOCH": "2025-12-01T04:16:57.552096", "MEAN_MOTION": 15.01965558, "ECCENTRICITY": 0.00505004, "INCLINATION": 73.8879, "RA_OF_ASC_NODE": 38.501, "ARG_OF_PERICENTER": 349.5182, "MEAN_ANOMALY": 10.4947, "EPHEMERIS_TYPE": 0, "CLASSIFICATION_TYPE": "U", "NORAD_CAT_ID": 36551, "ELEMENT_SET_NO": 999, "REV_AT_EPOCH": 66758, "BSTAR": 0.0014137691, "MEAN_MOTION_DOT": 0.00019039, "MEAN_MOTION_DDOT": 0}, "tle": {"line1": "1 36551U 93036BDM 25335.17844389  .00019039  00000+0  14138-2 0  9993", "line2": "2 36551  73.8879  38.5010 0050500 349.5182  10.4947 15.01965558667585"}}, "geometry": {"type": "Point", "coordinates": [-73.66010229631549, -73.26071208594894]}}, {"type": "Feature", "properties": {"norad_id": 36557, "name": "COSMOS 2251 DEB", "group": "cosmos-2251-debris", "lat": -69.87100405130214, "lon": 91.5359495293231, "alt_km": 629.9485769543271, "timestamp": "2025-12-04T03:47:54.939462+00:00", "meta": {"OBJECT_NAME": "COSMOS 2251 DEB", "OBJECT_ID": "1993-036BDT", "EPOCH": "2025-11-29T20:08:28.959648", "MEAN_MOTION": 14.77361907, "ECCENTRICITY": 0.00205231, "INCLINATION": 73.9794, "RA_OF_ASC_NODE": 151.6562, "ARG_OF_PERICENTER": 302.0455, "MEAN_ANOMALY": 57.8725, "EPHEMERIS_TYPE": 0, "CLASSIFICATION_TYPE": "U", "NORAD_CAT_ID": 36557, "ELEMENT_SET_NO": 999, "REV_AT_EPOCH": 33706, "BSTAR": 0.0024129009, "MEAN_MOTION_DOT": 0.00017224, "MEAN_MOTION_DDOT": 0}, "tle": {"line1": "1 36557U 93036BDT 25333.83922407  .00017224  00000+0  24129-2 0  9993", "line2": "2 36557  73.9794 151.6562 0020523 302.0455  57.8725 14.77361907337062"}}, "geometry": {"type": "Point", "coordinates": [91.5359495293231, -69.87100405130214]}}, {"type": "Feature", "properties": {"norad_id": 36558, "name": "COSMOS 2251 DEB", "group": "cosmos-2251-debris", "lat": -18.818400256178233, "lon": -3.6130560381510843, "alt_km": 708.4336563947845, "timestamp": "2025-12-04T03:47:54.939473+00:00", "meta": {"OBJECT_NAME": "COSMOS 2251 DEB", "OBJECT_ID": "1993-036BDU", "EPOCH": "2025-11-30T14:44:20.411232", "MEAN_MOTION": 14.55224096, "ECCENTRICITY": 0.0013208, "INCLINATION": 74.0432, "RA_OF_ASC_NODE": 177.4971, "ARG_OF_PERICENTER": 265.9101, "MEAN_ANOMALY": 94.0552, "EPHEMERIS_TYPE": 0, "CLASSIFICATION_TYPE": "U", "NORAD_CAT_ID": 36558, "ELEMENT_SET_NO": 999, "REV_AT_EPOCH": 85092, "BSTAR": 0.00073526, "MEAN_MOTION_DOT": 3.158e-05, "MEAN_MOTION_DDOT": 0}, "tle": {"line1": "1 36558U 93036BDU 25334.61412513  .00003158  00000+0  73526-3 0  9990", "line2": "2 36558  74.0432 177.4971 0013208 265.9101  94.0552 14.55224096850920"}}, "geometry": {"type": "Point", "coordinates": [-3.6130560381510843, -18.818400256178233]}}, {"type": "Feature", "properties": {"norad_id": 36559, "name": "COSMOS 2251 DEB", "group": "cosmos-2251-debris", "lat": 73.9547072587401, "lon": 122.93416304613606, "alt_km": 741.8154261826567, "timestamp": "2025-12-04T03:47:54.939484+00:00", "meta": {"OBJECT_NAME": "COSMOS 2251 DEB", "OBJECT_ID": "1993-036BDV", "EPOCH": "2025-12-03T03:17:00.548160", "MEAN_MOTION": 13.95062123, "ECCENTRICITY": 0.02603187, "INCLINATION": 74.1298, "RA_OF_ASC_NODE": 26.2197, "ARG_OF_PERICENTER": 61.9669, "MEAN_ANOMALY": 300.7529, "EPHEMERIS_TYPE": 0, "CLASSIFICATION_TYPE": "U", "NORAD_CAT_ID": 36559, "ELEMENT_SET_NO": 999, "REV_AT_EPOCH": 80960, "BSTAR": 0.0032733881, "MEAN_MOTION_DOT": 5.835e-05, "MEAN_MOTION_DDOT": 0}, "tle": {"line1": "1 36559U 93036BDV 25337.13681190  .00005835  00000+0  32734-2 0  9999", "line2": "2 36559  74.1298  26.2197 0260318  61.9669 300.7529 13.95062123809606"}}, "geometry": {"type": "Point", "coordinates": [122.93416304613606, 73.9547072587401]}}, {"type": "Feature", "properties": {"norad_id": 36614, "name": "COSMOS 2251 DEB", "group": "cosmos-2251-debris", "lat": 61.39968153711384, "lon": -137.3172838298089, "alt_km": 698.072555104719, "timestamp": "2025-12-04T03:47:54.939493+00:00", "meta": {"OBJECT_NAME": "COSMOS 2251 DEB", "OBJECT_ID": "1993-036BEC", "EPOCH": "2025-11-29T08:23:05.068608", "MEAN_MOTION": 14.60020605, "ECCENTRICITY": 0.00167217, "INCLINATION": 74.0224, "RA_OF_ASC_NODE": 200.1619, "ARG_OF_PERICENTER": 270.7966, "MEAN_ANOMALY": 89.1284, "EPHEMERIS_TYPE": 0, "CLASSIFICATION_TYPE": "U", "NORAD_CAT_ID": 36614, "ELEMENT_SET_NO": 999, "REV_AT_EPOCH": 65417, "BSTAR": 0.0010676228, "MEAN_MOTION_DOT": 5.109e-05, "MEAN_MOTION_DDOT": 0}, "tle": {"line1": "1 36614U 93036BEC 25333.34936422  .00005109  00000+0  10676-2 0  9996", "line2": "2 36614  74.0224 200.1619 0016721 270.7966  89.1284 14.60020605654173"}}, "geometry": {"type": "Point", "coordinates": [-137.3172838298089, 61.39968153711384]}}, {"type": "Feature", "properties": {"norad_id": 36622, "name": "COSMOS 2251 DEB", "group": "cosmos-2251-debris", "lat": -1.1208544010359207, "lon": 161.97949036380498, "alt_km": 619.9219042913173, "timestamp": "2025-12-04T03:47:54.939504+00:00", "meta": {"OBJECT_NAME": "COSMOS 2251 DEB", "OBJECT_ID": "1993-036BEL", "EPOCH": "2025-12-03T05:01:52.298112", "MEAN_MOTION": 14.76060389, "ECCENTRICITY": 0.0068654, "INCLINATION": 74.0123, "RA_OF_ASC_NODE": 164.1599, "ARG_OF_PERICENTER": 301.45, "MEAN_ANOMALY": 57.9974, "EPHEMERIS_TYPE": 0, "CLASSIFICATION_TYPE": "U", "NORAD_CAT_ID": 36622, "ELEMENT_SET_NO": 999, "REV_AT_EPOCH": 66609, "BSTAR": 0.0007971, "MEAN_MOTION_DOT": 5.681e-05, "MEAN_MOTION_DDOT": 0}, "tle": {"line1": "1 36622U 93036BEL 25337.20963308  .00005681  00000+0  79710-3 0  9997", "line2": "2 36622  74.0123 164.1599 0068654 301.4500  57.9974 14.76060389666097"}}, "geometry": {"type": "Point", "coordinates": [161.97949036380498, -1.1208544010359207]}}]}